NORAD_CAT_ID,OBJECT_NAME,OBJECT_TYPE,EPOCH,MEAN_MOTION,ECCENTRICITY,INCLINATION,RA_OF_ASC_NODE,ARG_OF_PERICENTER,MEAN_ANOMALY,BSTAR,MEAN_MOTION_DOT,MEAN_MOTION_DDOT,TLE_LINE0,TLE_LINE1,TLE_LINE2,SEMIMAJOR_AXIS,PERIOD,APOGEE,PERIGEE,DECAYED
56807.0,STARLINK-6073,PAYLOAD,2023-11-09 09:30:50,15.69658112,0.0002592,70.0001,317.4681,261.3783,98.7119,-0.00029415,-0.00035043,0.0,0 STARLINK-6073,1 56807U 23078AS  23313.39641783 -.00035043  00000-0 -29415-3 0  9990,2 56807  70.0001 317.4681 0002592 261.3783  98.7119 15.69658112 25752,6738.012,91.74,361.624,358.131,0.0
56807.0,STARLINK-6073,PAYLOAD,2023-11-10 03:56:08,15.66417604,0.0009403,69.997,315.3274,111.8923,248.3272,-0.0040988,-0.00408291,0.0,0 STARLINK-6073,1 56807U 23078AS  23314.16399244 -.00408291  00000-0 -40988-2 0  9994,2 56807  69.9970 315.3274 0009403 111.8923 248.3272 15.66417604 25874,6747.302,91.93,375.511,362.822,0.0
56807.0,STARLINK-6073,PAYLOAD,2023-11-10 14:00:01,15.67069106,0.0003534,69.9994,314.1356,273.1876,306.7394,-0.0098586,-0.00957527,0.0,0 STARLINK-6073,1 56807U 23078AS  23314.58334491 -.00957527  00000-0 -98586-2 0  9991,2 56807  69.9994 314.1356 0003534 273.1876 306.7394 15.67069106 25938,6745.432,91.891,369.68,364.913,0.0
56807.0,STARLINK-6073,PAYLOAD,2023-11-10 22:00:00,15.66364931,0.000365,69.9994,313.2028,266.0775,33.347,-0.0090372,-0.00849363,0.0,0 STARLINK-6073,1 56807U 23078AS  23314.91667824 -.00849363  00000-0 -90372-2 0  9990,2 56807  69.9994 313.2028 0003650 266.0775  33.3470 15.66364931  5986,6747.453,91.933,371.781,366.855,0.0
56807.0,STARLINK-6073,PAYLOAD,2023-11-11 06:00:02,15.6574047,0.0003579,69.9995,312.2709,271.283,106.9089,-0.0099422,-0.0091882,0.0,0 STARLINK-6073,1 56807U 23078AS  23315.25002315 -.00918820  00000-0 -99422-2 0  9996,2 56807  69.9995 312.2709 0003579 271.2830 106.9089 15.65740470 26040,6749.247,91.969,373.528,368.696,0.0
56807.0,STARLINK-6073,PAYLOAD,2023-11-11 14:00:01,15.65112997,0.0003434,69.9993,311.3399,274.4986,181.5403,-0.010673,-0.00957866,0.0,0 STARLINK-6073,1 56807U 23078AS  23315.58334491 -.00957866  00000-0 -10673-1 0  9998,2 56807  69.9993 311.3399 0003434 274.4986 181.5403 15.65112997  5942,6751.051,92.006,375.234,370.597,0.0
56807.0,STARLINK-6073,PAYLOAD,2023-11-11 22:00:01,15.64411629,0.0003359,69.9995,310.4102,266.3829,266.8701,-0.0098419,-0.00867052,0.0,0 STARLINK-6073,1 56807U 23078AS  23315.91668981 -.00867052  00000-0 -98419-2 0  9991,2 56807  69.9995 310.4102 0003359 266.3829 266.8701 15.64411629  5994,6753.068,92.047,377.202,372.665,0.0
56807.0,STARLINK-6073,PAYLOAD,2023-11-12 04:00:00,15.63962007,0.0003437,69.9997,309.7133,269.6678,230.8539,-0.010938,-0.00939479,0.0,0 STARLINK-6073,1 56807U 23078AS  23316.16667824 -.00939479  00000-0 -10938-1 0  9996,2 56807  69.9997 309.7133 0003437 269.6678 230.8539 15.63962007 26180,6754.363,92.074,378.549,373.906,0.0
56807.0,STARLINK-6073,PAYLOAD,2023-11-12 14:00:01,15.63151628,0.0003557,69.9991,308.5527,270.2355,54.8754,-0.011466,-0.00952549,0.0,0 STARLINK-6073,1 56807U 23078AS  23316.58334491 -.00952549  00000-0 -11466-1 0  9993,2 56807  69.9991 308.5527 0003557 270.2355  54.8754 15.63151628  6046,6756.697,92.122,380.965,376.159,0.0
56807.0,STARLINK-6073,PAYLOAD,2023-11-12 22:00:00,15.62455695,0.0003505,69.9992,307.6254,265.4915,134.42,-0.010639,-0.00867704,0.0,0 STARLINK-6073,1 56807U 23078AS  23316.91667824 -.00867704  00000-0 -10639-1 0  9998,2 56807  69.9992 307.6254 0003505 265.4915 134.4200 15.62455695  6057,6758.703,92.163,382.937,378.199,0.0
56807.0,STARLINK-6073,PAYLOAD,2023-11-13 14:00:01,15.61191679,0.0003229,69.9992,305.7733,268.8484,278.2942,-0.012318,-0.00948228,0.0,0 STARLINK-6073,1 56807U 23078AS  23317.58334491 -.00948228  00000-0 -12318-1 0  9990,2 56807  69.9992 305.7733 0003229 268.8484 278.2942 15.61191679 26408,6762.351,92.237,386.399,382.032,0.0
56807.0,STARLINK-6073,PAYLOAD,2023-11-13 22:00:00,15.60502292,0.0003386,69.9995,304.8491,261.6181,357.9755,-0.011546,-0.00872464,0.0,0 STARLINK-6073,1 56807U 23078AS  23317.91667824 -.00872464  00000-0 -11546-1 0  9996,2 56807  69.9995 304.8491 0003386 261.6181 357.9755 15.60502292  5984,6764.342,92.278,388.498,383.917,0.0
56807.0,STARLINK-6073,PAYLOAD,2023-11-14 06:00:00,15.59862956,0.0003522,69.9993,303.9255,268.0275,63.2323,-0.012345,-0.00906957,0.0,0 STARLINK-6073,1 56807U 23078AS  23318.25001157 -.00906957  00000-0 -12345-1 0  9998,2 56807  69.9993 303.9255 0003522 268.0275  63.2323 15.59862956 26511,6766.19,92.316,390.438,385.672,0.0
56807.0,STARLINK-6073,PAYLOAD,2023-11-14 14:00:01,15.59232581,0.0003533,69.9991,303.0026,269.6894,132.4423,-0.013212,-0.00943844,0.0,0 STARLINK-6073,1 56807U 23078AS  23318.58334491 -.00943844  00000-0 -13212-1 0  9994,2 56807  69.9991 303.0026 0003533 269.6894 132.4423 15.59232581  6009,6768.014,92.353,392.27,387.488,0.0
56807.0,STARLINK-6073,PAYLOAD,2023-11-14 22:00:00,15.58545199,0.000338,69.9995,302.0807,263.0553,209.1794,-0.012434,-0.0087194,0.0,0 STARLINK-6073,1 56807U 23078AS  23318.91667824 -.00871940  00000-0 -12434-1 0  9992,2 56807  69.9995 302.0807 0003380 263.0553 209.1794 15.58545199  6058,6770.004,92.394,394.157,389.58,0.0
56807.0,STARLINK-6073,PAYLOAD,2023-11-15 06:00:02,15.57902851,0.0003318,69.9997,301.1596,266.9971,274.6232,-0.013195,-0.00900361,0.0,0 STARLINK-6073,1 56807U 23078AS  23319.25002315 -.00900361  00000-0 -13195-1 0  9993,2 56807  69.9997 301.1596 0003318 266.9971 274.6232 15.57902851 26666,6771.865,92.432,395.976,391.483,0.0
56807.0,STARLINK-6073,PAYLOAD,2023-11-15 14:00:01,15.57282098,0.0003369,69.9995,300.2395,264.8044,345.3402,-0.014467,-0.00958404,0.0,0 STARLINK-6073,1 56807U 23078AS  23319.58335648 -.00958404  00000-0 -14467-1 0  9991,2 56807  69.9995 300.2395 0003369 264.8044 345.3402 15.57282098  5997,6773.664,92.469,397.811,393.247,0.0
56807.0,STARLINK-6073,PAYLOAD,2023-11-15 22:00:00,15.56591664,0.0003529,69.9998,299.3206,260.0062,57.8279,-0.013388,-0.00872351,0.0,0 STARLINK-6073,1 56807U 23078AS  23319.91667824 -.00872351  00000-0 -13388-1 0  9999,2 56807  69.9998 299.3206 0003529 260.0062  57.8279 15.56591664 26772,6775.667,92.51,399.923,395.141,0.0
56807.0,STARLINK-6073,PAYLOAD,2023-11-16 14:00:01,15.55319359,0.000335,69.9996,297.4849,266.8712,184.1183,-0.015391,-0.00948688,0.0,0 STARLINK-6073,1 56807U 23078AS  23320.58334491 -.00948688  00000-0 -15391-1 0  9998,2 56807  69.9996 297.4849 0003350 266.8712 184.1183 15.55319359 26877,6779.361,92.585,403.498,398.955,0.0
56807.0,STARLINK-6073,PAYLOAD,2023-11-16 22:00:01,15.54644732,0.0003374,70.0001,296.5686,260.277,256.1794,-0.014669,-0.00887788,0.0,0 STARLINK-6073,1 56807U 23078AS  23320.91668981 -.00887788  00000-0 -14669-1 0  9999,2 56807  70.0001 296.5686 0003374 260.2770 256.1794 15.54644732  6033,6781.323,92.626,405.476,400.9,0.0
56807.0,STARLINK-6073,PAYLOAD,2023-11-17 06:00:00,15.53982008,0.0003466,70.0001,295.653,264.8705,316.1562,-0.015062,-0.00889544,0.0,0 STARLINK-6073,1 56807U 23078AS  23321.25001157 -.00889544  00000-0 -15062-1 0  9993,2 56807  70.0001 295.6530 0003466 264.8705 316.1562 15.53982008 26987,6783.25,92.665,407.466,402.764,0.0
56807.0,STARLINK-6073,PAYLOAD,2023-11-17 14:00:01,15.5336606,0.0003536,69.9996,294.7382,263.1285,21.7259,-0.016638,-0.00967743,0.0,0 STARLINK-6073,1 56807U 23078AS  23321.58334491 -.00967743  00000-0 -16638-1 0  9997,2 56807  69.9996 294.7382 0003536 263.1285  21.7259 15.53366060  5999,6785.043,92.702,409.308,404.509,0.0
56807.0,STARLINK-6073,PAYLOAD,2023-11-17 22:00:01,15.52688138,0.0003646,70.0,293.8244,261.3639,86.6121,-0.015757,-0.00887979,0.0,0 STARLINK-6073,1 56807U 23078AS  23321.91668981 -.00887979  00000-0 -15757-1 0  9991,2 56807  70.0000 293.8244 0003646 261.3639  86.6121 15.52688138 27084,6787.018,92.742,411.358,406.409,0.0
56807.0,STARLINK-6073,PAYLOAD,2023-11-18 14:00:01,15.51268364,0.0003506,69.9997,291.9995,266.8207,204.8786,-0.0016284,-0.00094833,0.0,0 STARLINK-6073,1 56807U 23078AS  23322.58334491 -.00094833  00000-0 -16284-2 0  9997,2 56807  69.9997 291.9995 0003506 266.8207 204.8786 15.51268364 27180,6791.159,92.827,415.405,410.643,0.0
56807.0,STARLINK-6073,PAYLOAD,2023-11-18 22:00:00,15.51230605,0.0003533,70.0001,291.0883,262.8623,269.753,0.00016498,9.54e-05,0.0,0 STARLINK-6073,1 56807U 23078AS  23322.91667824  .00009540  00000-0  16498-3 0  9990,2 56807  70.0001 291.0883 0003533 262.8623 269.7530 15.51230605 27234,6791.269,92.83,415.533,410.735,0.0
56807.0,STARLINK-6073,PAYLOAD,2023-11-19 14:00:01,15.51236563,0.0003407,69.9996,289.2657,269.3651,25.1526,-0.00076312,-0.00044758,0.0,0 STARLINK-6073,1 56807U 23078AS  23323.58335648 -.00044758  00000-0 -76312-3 0  9993,2 56807  69.9996 289.2657 0003407 269.3651  25.1526 15.51236563 27345,6791.252,92.829,415.43,410.803,0.0
56807.0,STARLINK-6073,PAYLOAD,2023-11-19 22:00:00,15.51236389,0.0003416,70.0002,288.3545,265.2564,90.0961,6.296e-05,3.537e-05,0.0,0 STARLINK-6073,1 56807U 23078AS  23323.91667824  .00003537  00000-0  62960-4 0  9997,2 56807  70.0002 288.3545 0003416 265.2564  90.0961 15.51236389 27395,6791.252,92.829,415.437,410.797,0.0
56807.0,STARLINK-6073,PAYLOAD,2023-11-20 14:00:01,15.512301,0.0003357,69.9996,286.5316,270.4884,206.7116,-0.00048854,-0.00028764,0.0,0 STARLINK-6073,1 56807U 23078AS  23324.58334491 -.00028764  00000-0 -48854-3 0  9998,2 56807  69.9996 286.5316 0003357 270.4884 206.7116 15.51230100 27491,6791.27,92.83,415.415,410.856,0.0
56807.0,STARLINK-6073,PAYLOAD,2023-11-20 22:00:00,15.51248278,0.000333,70.0,285.6203,266.4165,271.6846,-0.00041651,-0.00024576,0.0,0 STARLINK-6073,1 56807U 23078AS  23324.91667824 -.00024576  00000-0 -41651-3 0  9999,2 56807  70.0000 285.6203 0003330 266.4165 271.6846 15.51248278  5989,6791.217,92.828,415.344,410.821,0.0
56807.0,STARLINK-6073,PAYLOAD,2023-11-21 06:00:00,15.51200159,0.0003285,69.9999,284.7087,274.5459,324.4951,0.00073869,0.00043426,0.0,0 STARLINK-6073,1 56807U 23078AS  23325.25001157  .00043426  00000-0  73869-3 0  9997,2 56807  69.9999 284.7087 0003285 274.5459 324.4951 15.51200159 27601,6791.358,92.831,415.454,410.992,0.0
